start=new Date('2022-12-09T00:00:00.000Z').valueOf();
sats=[{"FILE":"3684903","OBJECT_NAME":"STARLINK-5181","ELEMENT_SET_NO":"999","ECCENTRICITY":"0.00020210","MEAN_MOTION_DDOT":"0.0000000000000","OBJECT_ID":"2022-136V","SITE":"AFETR","RCS_SIZE":"LARGE","TLE_LINE2":"2 54070  53.2172 271.1190 0002021  65.1160  83.2278 15.08896100  8188","BSTAR":"-0.00632040000000","TIME_SYSTEM":"UTC","APOAPSIS":"540.972","ARG_OF_PERICENTER":"65.1160","DECAY_DATE":null,"CLASSIFICATION_TYPE":"U","MEAN_MOTION":"15.08896100","REV_AT_EPOCH":"818","TLE_LINE1":"1 54070U 22136V   22343.00001157 -.00099644  00000-0 -63204-2 0  9999","MEAN_ELEMENT_THEORY":"SGP4","RA_OF_ASC_NODE":"271.1190","PERIOD":"95.434","COUNTRY_CODE":"US","SEMIMAJOR_AXIS":"6917.709","INCLINATION":"53.2172","CENTER_NAME":"EARTH","OBJECT_TYPE":"PAYLOAD","NORAD_CAT_ID":"54070","LAUNCH_DATE":"2022-10-20","EPHEMERIS_TYPE":"0","PERIAPSIS":"538.176","EPOCH":"2022-12-09T00:00:00.999648","MEAN_ANOMALY":"83.2278","MEAN_MOTION_DOT":"-0.00099644","REF_FRAME":"TEME","GP_ID":"219786074"},{"FILE":"3684903","OBJECT_NAME":"STARLINK-5168","ECCENTRICITY":"0.00017860","ELEMENT_SET_NO":"999","MEAN_MOTION_DDOT":"0.0000000000000","OBJECT_ID":"2022-136W","SITE":"AFETR","TLE_LINE2":"2 54071  53.2157 271.0646 0001786  47.2223 126.4791 15.08823345  8186","RCS_SIZE":"LARGE","BSTAR":"-0.00059705000000","TIME_SYSTEM":"UTC","ARG_OF_PERICENTER":"47.2223","APOAPSIS":"541.032","CLASSIFICATION_TYPE":"U","DECAY_DATE":null,"MEAN_MOTION":"15.08823345","REV_AT_EPOCH":"818","TLE_LINE1":"1 54071U 22136W   22343.00001157 -.00009773  00000-0 -59705-3 0  9996","RA_OF_ASC_NODE":"271.0646","PERIOD":"95.439","MEAN_ELEMENT_THEORY":"SGP4","INCLINATION":"53.2157","COUNTRY_CODE":"US","SEMIMAJOR_AXIS":"6917.931","CENTER_NAME":"EARTH","NORAD_CAT_ID":"54071","OBJECT_TYPE":"PAYLOAD","EPHEMERIS_TYPE":"0","LAUNCH_DATE":"2022-10-20","PERIAPSIS":"538.561","MEAN_ANOMALY":"126.4791","EPOCH":"2022-12-09T00:00:00.999648","MEAN_MOTION_DOT":"-0.00009773","REF_FRAME":"TEME","GP_ID":"219785915"},{"OBJECT_ID":"2022-136X","MEAN_MOTION_DDOT":"0.0000000000000","SITE":"AFETR","FILE":"3684903","ECCENTRICITY":"0.00016540","ELEMENT_SET_NO":"999","OBJECT_NAME":"STARLINK-5144","REV_AT_EPOCH":"818","CLASSIFICATION_TYPE":"U","DECAY_DATE":null,"MEAN_MOTION":"15.08904596","TLE_LINE1":"1 54072U 22136X   22343.00001157 -.00098236  00000-0 -62283-2 0  9993","BSTAR":"-0.00622830000000","RCS_SIZE":"LARGE","TLE_LINE2":"2 54072  53.2183 271.1117 0001654  44.4056 109.1735 15.08904596  8181","ARG_OF_PERICENTER":"44.4056","APOAPSIS":"540.692","TIME_SYSTEM":"UTC","EPHEMERIS_TYPE":"0","LAUNCH_DATE":"2022-10-20","OBJECT_TYPE":"PAYLOAD","NORAD_CAT_ID":"54072","EPOCH":"2022-12-09T00:00:00.999648","PERIAPSIS":"538.404","MEAN_ANOMALY":"109.1735","INCLINATION":"53.2183","SEMIMAJOR_AXIS":"6917.683","COUNTRY_CODE":"US","PERIOD":"95.433","RA_OF_ASC_NODE":"271.1117","MEAN_ELEMENT_THEORY":"SGP4","CENTER_NAME":"EARTH","GP_ID":"219786086","MEAN_MOTION_DOT":"-0.00098236","REF_FRAME":"TEME"},{"MEAN_MOTION_DOT":"-0.01135092","REF_FRAME":"TEME","GP_ID":"219811060","MEAN_ELEMENT_THEORY":"SGP4","PERIOD":"94.342","RA_OF_ASC_NODE":"267.4701","SEMIMAJOR_AXIS":"6864.851","COUNTRY_CODE":"US","INCLINATION":"53.2175","CENTER_NAME":"EARTH","OBJECT_TYPE":"PAYLOAD","NORAD_CAT_ID":"54073","LAUNCH_DATE":"2022-10-20","EPHEMERIS_TYPE":"0","PERIAPSIS":"485.488","EPOCH":"2022-12-08T22:00:01.999584","MEAN_ANOMALY":"237.4500","RCS_SIZE":"LARGE","TLE_LINE2":"2 54073  53.2175 267.4701 0001790  38.6905 237.4500 15.26356763  1308","BSTAR":"-0.04731100000000","TIME_SYSTEM":"UTC","APOAPSIS":"487.945","ARG_OF_PERICENTER":"38.6905","DECAY_DATE":null,"CLASSIFICATION_TYPE":"U","MEAN_MOTION":"15.26356763","REV_AT_EPOCH":"130","TLE_LINE1":"1 54073U 22136Y   22342.91668981 -.01135092  00000-0 -47311-1 0  9994","FILE":"3684925","OBJECT_NAME":"STARLINK-5146","ELEMENT_SET_NO":"999","ECCENTRICITY":"0.00017900","MEAN_MOTION_DDOT":"0.0000000000000","OBJECT_ID":"2022-136Y","SITE":"AFETR"},{"TLE_LINE1":"1 54074U 22136Z   22342.91668981 -.00042293  00000-0 -26542-2 0  9998","REV_AT_EPOCH":"130","MEAN_MOTION":"15.08849559","DECAY_DATE":null,"CLASSIFICATION_TYPE":"U","ARG_OF_PERICENTER":"47.9220","APOAPSIS":"540.890","TIME_SYSTEM":"UTC","BSTAR":"-0.00265420000000","TLE_LINE2":"2 54074  53.2146 271.3623 0001697  47.9220  72.9461 15.08849559  1301","RCS_SIZE":"LARGE","SITE":"AFETR","OBJECT_ID":"2022-136Z","MEAN_MOTION_DDOT":"0.0000000000000","ECCENTRICITY":"0.00016970","ELEMENT_SET_NO":"999","OBJECT_NAME":"STARLINK-5192","FILE":"3684925","GP_ID":"219812282","REF_FRAME":"TEME","MEAN_MOTION_DOT":"-0.00042293","PERIAPSIS":"538.542","MEAN_ANOMALY":"72.9461","EPOCH":"2022-12-08T22:00:01.999584","EPHEMERIS_TYPE":"0","LAUNCH_DATE":"2022-10-20","NORAD_CAT_ID":"54074","OBJECT_TYPE":"PAYLOAD","CENTER_NAME":"EARTH","INCLINATION":"53.2146","SEMIMAJOR_AXIS":"6917.851","COUNTRY_CODE":"US","RA_OF_ASC_NODE":"271.3623","PERIOD":"95.437","MEAN_ELEMENT_THEORY":"SGP4"},{"MEAN_MOTION_DOT":"-0.01138288","REF_FRAME":"TEME","GP_ID":"219811685","MEAN_ELEMENT_THEORY":"SGP4","RA_OF_ASC_NODE":"267.3174","PERIOD":"94.201","SEMIMAJOR_AXIS":"6858.005","COUNTRY_CODE":"US","INCLINATION":"53.2177","CENTER_NAME":"EARTH","NORAD_CAT_ID":"54075","OBJECT_TYPE":"PAYLOAD","LAUNCH_DATE":"2022-10-20","EPHEMERIS_TYPE":"0","PERIAPSIS":"478.902","EPOCH":"2022-12-08T22:00:01.999584","MEAN_ANOMALY":"304.6536","TLE_LINE2":"2 54075  53.2177 267.3174 0001412  48.7380 304.6536 15.28642979  1300","RCS_SIZE":"LARGE","BSTAR":"-0.04424800000000","TIME_SYSTEM":"UTC","APOAPSIS":"480.838","ARG_OF_PERICENTER":"48.7380","CLASSIFICATION_TYPE":"U","DECAY_DATE":null,"MEAN_MOTION":"15.28642979","REV_AT_EPOCH":"130","TLE_LINE1":"1 54075U 22136AA  22342.91668981 -.01138288  00000-0 -44248-1 0  9992","FILE":"3684925","OBJECT_NAME":"STARLINK-5212","ELEMENT_SET_NO":"999","ECCENTRICITY":"0.00014120","MEAN_MOTION_DDOT":"0.0000000000000","OBJECT_ID":"2022-136AA","SITE":"AFETR"},{"MEAN_MOTION_DOT":"-0.00075178","REF_FRAME":"TEME","GP_ID":"219786236","RA_OF_ASC_NODE":"270.9495","PERIOD":"95.435","MEAN_ELEMENT_THEORY":"SGP4","INCLINATION":"53.2137","COUNTRY_CODE":"US","SEMIMAJOR_AXIS":"6917.747","CENTER_NAME":"EARTH","OBJECT_TYPE":"PAYLOAD","NORAD_CAT_ID":"54076","EPHEMERIS_TYPE":"0","LAUNCH_DATE":"2022-10-20","PERIAPSIS":"538.459","EPOCH":"2022-12-09T00:00:00.999648","MEAN_ANOMALY":"205.0563","TLE_LINE2":"2 54076  53.2137 270.9495 0001667  28.5235 205.0563 15.08883643  8180","RCS_SIZE":"LARGE","BSTAR":"-0.00474950000000","TIME_SYSTEM":"UTC","ARG_OF_PERICENTER":"28.5235","APOAPSIS":"540.765","CLASSIFICATION_TYPE":"U","DECAY_DATE":null,"MEAN_MOTION":"15.08883643","REV_AT_EPOCH":"818","TLE_LINE1":"1 54076U 22136AB  22343.00001157 -.00075178  00000-0 -47495-2 0  9995","FILE":"3684914","OBJECT_NAME":"STARLINK-5201","ECCENTRICITY":"0.00016670","ELEMENT_SET_NO":"999","MEAN_MOTION_DDOT":"0.0000000000000","OBJECT_ID":"2022-136AB","SITE":"AFETR"},{"MEAN_MOTION":"15.73235061","DECAY_DATE":null,"CLASSIFICATION_TYPE":"U","REV_AT_EPOCH":"767","TLE_LINE1":"1 54077U 22136AC  22342.17132533  .00008529  00000-0  65037-4 0  9994","RCS_SIZE":"LARGE","TLE_LINE2":"2 54077  53.2149 267.5713 0003640   3.8510 356.2538 15.73235061  7675","BSTAR":"0.00006503700000","TIME_SYSTEM":"UTC","ARG_OF_PERICENTER":"3.8510","APOAPSIS":"352.109","MEAN_MOTION_DDOT":"0.0000000000000","OBJECT_ID":"2022-136AC","SITE":"AFETR","FILE":"3684614","OBJECT_NAME":"STARLINK-5171","ECCENTRICITY":"0.00036400","ELEMENT_SET_NO":"999","GP_ID":"219778492","MEAN_MOTION_DOT":"0.00008529","REF_FRAME":"TEME","NORAD_CAT_ID":"54077","OBJECT_TYPE":"PAYLOAD","EPHEMERIS_TYPE":"0","LAUNCH_DATE":"2022-10-20","PERIAPSIS":"347.211","EPOCH":"2022-12-08T04:06:42.508512","MEAN_ANOMALY":"356.2538","PERIOD":"91.531","RA_OF_ASC_NODE":"267.5713","MEAN_ELEMENT_THEORY":"SGP4","INCLINATION":"53.2149","COUNTRY_CODE":"US","SEMIMAJOR_AXIS":"6727.795","CENTER_NAME":"EARTH"},{"REF_FRAME":"TEME","MEAN_MOTION_DOT":"0.00017897","GP_ID":"219777674","CENTER_NAME":"EARTH","SEMIMAJOR_AXIS":"6727.789","COUNTRY_CODE":"US","INCLINATION":"53.2142","MEAN_ELEMENT_THEORY":"SGP4","PERIOD":"91.531","RA_OF_ASC_NODE":"267.5743","PERIAPSIS":"346.934","EPOCH":"2022-12-08T04:06:52.220736","MEAN_ANOMALY":"350.9819","LAUNCH_DATE":"2022-10-20","EPHEMERIS_TYPE":"0","OBJECT_TYPE":"PAYLOAD","NORAD_CAT_ID":"54078","APOAPSIS":"352.375","ARG_OF_PERICENTER":"9.1274","TIME_SYSTEM":"UTC","BSTAR":"0.00013143000000","RCS_SIZE":"LARGE","TLE_LINE2":"2 54078  53.2142 267.5743 0004043   9.1274 350.9819 15.73237067  7677","TLE_LINE1":"1 54078U 22136AD  22342.17143774  .00017897  00000-0  13143-3 0  9992","REV_AT_EPOCH":"767","DECAY_DATE":null,"CLASSIFICATION_TYPE":"U","MEAN_MOTION":"15.73237067","ELEMENT_SET_NO":"999","ECCENTRICITY":"0.00040430","OBJECT_NAME":"STARLINK-5138","FILE":"3684614","SITE":"AFETR","OBJECT_ID":"2022-136AD","MEAN_MOTION_DDOT":"0.0000000000000"},{"INCLINATION":"53.2172","COUNTRY_CODE":"US","SEMIMAJOR_AXIS":"6791.202","PERIOD":"92.828","RA_OF_ASC_NODE":"264.1839","MEAN_ELEMENT_THEORY":"SGP4","CENTER_NAME":"EARTH","EPHEMERIS_TYPE":"0","LAUNCH_DATE":"2022-10-20","NORAD_CAT_ID":"54079","OBJECT_TYPE":"PAYLOAD","EPOCH":"2022-12-09T00:00:00.999648","PERIAPSIS":"412.356","MEAN_ANOMALY":"305.6042","MEAN_MOTION_DOT":"-0.01129564","REF_FRAME":"TEME","GP_ID":"219786209","FILE":"3684914","ECCENTRICITY":"0.00010480","ELEMENT_SET_NO":"999","OBJECT_NAME":"STARLINK-5175","OBJECT_ID":"2022-136AE","MEAN_MOTION_DDOT":"0.0000000000000","SITE":"AFETR","BSTAR":"-0.02101100000000","TLE_LINE2":"2 54079  53.2172 264.1839 0001048  74.8571 305.6042 15.51253435  8276","RCS_SIZE":"LARGE","ARG_OF_PERICENTER":"74.8571","APOAPSIS":"413.779","TIME_SYSTEM":"UTC","REV_AT_EPOCH":"827","DECAY_DATE":null,"CLASSIFICATION_TYPE":"U","MEAN_MOTION":"15.51253435","TLE_LINE1":"1 54079U 22136AE  22343.00001157 -.01129564  00000-0 -21011-1 0  9993"}];
